[{"OBJECT_NAME":"STARLINK-5167","OBJECT_ID":"2022-136H","EPOCH":"2026-03-09T02:12:56.368512","MEAN_MOTION":15.08826452,"ECCENTRICITY":0.000138,"INCLINATION":53.2187,"RA_OF_ASC_NODE":346.8102,"ARG_OF_PERICENTER":80.856,"MEAN_ANOMALY":279.2588,"EPHEMERIS_TYPE":0,"CLASSIFICATION_TYPE":"U","NORAD_CAT_ID":54058,"ELEMENT_SET_NO":999,"REV_AT_EPOCH":18675,"BSTAR":-8.6490862e-5,"MEAN_MOTION_DOT":-1.664e-5,"MEAN_MOTION_DDOT":0},{"OBJECT_NAME":"ASTRO-H (HITOMI)","OBJECT_ID":"2016-012A","EPOCH":"2026-03-09T04:06:47.322720","MEAN_MOTION":15.10001629,"ECCENTRICITY":0.0009877,"INCLINATION":31.0008,"RA_OF_ASC_NODE":359.8923,"ARG_OF_PERICENTER":325.8962,"MEAN_ANOMALY":34.1041,"EPHEMERIS_TYPE":0,"CLASSIFICATION_TYPE":"U","NORAD_CAT_ID":41337,"ELEMENT_SET_NO":999,"REV_AT_EPOCH":55215,"BSTAR":0.00025536822,"MEAN_MOTION_DOT":4.351e-5,"MEAN_MOTION_DDOT":0}]
